[
    {
        "Altitude(m)": 715251.6209938228,
        "Argument of Periapsis(deg)": 0.0034170363559881197,
        "Eccentricity": 0.0,
        "Inclination(deg)": 45.0,
        "Latitude(deg)": -38.80175123345828,
        "Longitude(deg)": 46.682346393681385,
        "Mean Anomaly(deg)": -61.994535005755736,
        "RAAN(deg)": 199.99677441756253,
        "Satellite Name": "Constellation 1 898",
        "Satellite Number": 898,
        "Semi-Major Axis(m)": 7083131.272910544,
        "Time(s)": 57
    },
    {
        "Altitude(m)": 715240.9579084521,
        "Argument of Periapsis(deg)": 0.003476984362233526,
        "Eccentricity": 0.0,
        "Inclination(deg)": 45.0,
        "Latitude(deg)": -38.775947826910546,
        "Longitude(deg)": 46.74842168032017,
        "Mean Anomaly(deg)": -61.933833865505875,
        "RAAN(deg)": 199.99671782839695,
        "Satellite Name": "Constellation 1 898",
        "Satellite Number": 898,
        "Semi-Major Axis(m)": 7083131.272910544,
        "Time(s)": 58
    },
    {
        "Altitude(m)": 715230.2780924598,
        "Argument of Periapsis(deg)": 0.003536932368478932,
        "Eccentricity": 0.0,
        "Inclination(deg)": 45.0,
        "Latitude(deg)": -38.75010216360259,
        "Longitude(deg)": 46.81444634022219,
        "Mean Anomaly(deg)": -61.873132725255914,
        "RAAN(deg)": 199.9966612392314,
        "Satellite Name": "Constellation 1 898",
        "Satellite Number": 898,
        "Semi-Major Axis(m)": 7083131.272910544,
        "Time(s)": 59
    },
    {
        "Altitude(m)": 715219.5815846518,
        "Argument of Periapsis(deg)": 0.003596880374724337,
        "Eccentricity": 0.0,
        "Inclination(deg)": 45.0,
        "Latitude(deg)": -38.724214311835716,
        "Longitude(deg)": 46.880420710356155,
        "Mean Anomaly(deg)": -61.81243158500606,
        "RAAN(deg)": 199.99660465006585,
        "Satellite Name": "Constellation 1 898",
        "Satellite Number": 898,
        "Semi-Major Axis(m)": 7083131.272910544,
        "Time(s)": 60
    },
    {
        "Altitude(m)": 715208.8684239025,
        "Argument of Periapsis(deg)": 0.0036568283809697427,
        "Eccentricity": 0.0,
        "Inclination(deg)": 45.0,
        "Latitude(deg)": -38.6982843398913,
        "Longitude(deg)": 46.94634462377927,
        "Mean Anomaly(deg)": -61.751730444756085,
        "RAAN(deg)": 199.99654806090024,
        "Satellite Name": "Constellation 1 898",
        "Satellite Number": 898,
        "Semi-Major Axis(m)": 7083131.272910544,
        "Time(s)": 61
    },
    {
        "Altitude(m)": 715198.1386491313,
        "Argument of Periapsis(deg)": 0.003716776387215149,
        "Eccentricity": 0.0,
        "Inclination(deg)": 45.0,
        "Latitude(deg)": -38.67231231602976,
        "Longitude(deg)": 47.01221808202254,
        "Mean Anomaly(deg)": -61.69102930450626,
        "RAAN(deg)": 199.99649147173469,
        "Satellite Name": "Constellation 1 898",
        "Satellite Number": 898,
        "Semi-Major Axis(m)": 7083131.272910544,
        "Time(s)": 62
    },
    {
        "Altitude(m)": 715187.3922993211,
        "Argument of Periapsis(deg)": 0.003776724393460554,
        "Eccentricity": 0.0,
        "Inclination(deg)": 45.0,
        "Latitude(deg)": -38.646298308489875,
        "Longitude(deg)": 47.07804108699362,
        "Mean Anomaly(deg)": -61.63032816425627,
        "RAAN(deg)": 199.9964348825691,
        "Satellite Name": "Constellation 1 898",
        "Satellite Number": 898,
        "Semi-Major Axis(m)": 7083131.272910544,
        "Time(s)": 63
    },
    {
        "Altitude(m)": 715176.6294135086,
        "Argument of Periapsis(deg)": 0.003836672399705959,
        "Eccentricity": 0.0,
        "Inclination(deg)": 45.0,
        "Latitude(deg)": -38.6202423854888,
        "Longitude(deg)": 47.14381364097399,
        "Mean Anomaly(deg)": -61.56962702400641,
        "RAAN(deg)": 199.99637829340355,
        "Satellite Name": "Constellation 1 898",
        "Satellite Number": 898,
        "Semi-Major Axis(m)": 7083131.272910544,
        "Time(s)": 64
    },
    {
        "Altitude(m)": 715165.8500307936,
        "Argument of Periapsis(deg)": 0.003896620405951365,
        "Eccentricity": 0.0,
        "Inclination(deg)": 45.0,
        "Latitude(deg)": -38.59414461522116,
        "Longitude(deg)": 47.209535746618656,
        "Mean Anomaly(deg)": -61.50892588375657,
        "RAAN(deg)": 199.996321704238,
        "Satellite Name": "Constellation 1 898",
        "Satellite Number": 898,
        "Semi-Major Axis(m)": 7083131.272910544,
        "Time(s)": 65
    },
    {
        "Altitude(m)": 715155.0541903238,
        "Argument of Periapsis(deg)": 0.003956568412196771,
        "Eccentricity": 0.0,
        "Inclination(deg)": 45.0,
        "Latitude(deg)": -38.568005065858706,
        "Longitude(deg)": 47.27520740695431,
        "Mean Anomaly(deg)": -61.448224743506685,
        "RAAN(deg)": 199.9962651150724,
        "Satellite Name": "Constellation 1 898",
        "Satellite Number": 898,
        "Semi-Major Axis(m)": 7083131.272910544,
        "Time(s)": 66
    },
    {
        "Altitude(m)": 715144.2419313155,
        "Argument of Periapsis(deg)": 0.004016516418442176,
        "Eccentricity": 0.0,
        "Inclination(deg)": 45.0,
        "Latitude(deg)": -38.54182380555026,
        "Longitude(deg)": 47.34082845728083,
        "Mean Anomaly(deg)": -61.38752360325675,
        "RAAN(deg)": 199.99620852590684,
        "Satellite Name": "Constellation 1 898",
        "Satellite Number": 898,
        "Semi-Major Axis(m)": 7083131.272910544,
        "Time(s)": 67
    },
    {
        "Altitude(m)": 715133.4132930277,
        "Argument of Periapsis(deg)": 0.004076464424687581,
        "Eccentricity": 0.0,
        "Inclination(deg)": 45.0,
        "Latitude(deg)": -38.51560090242013,
        "Longitude(deg)": 47.40639923755762,
        "Mean Anomaly(deg)": -61.32682246300686,
        "RAAN(deg)": 199.99615193674126,
        "Satellite Name": "Constellation 1 898",
        "Satellite Number": 898,
        "Semi-Major Axis(m)": 7083131.272910544,
        "Time(s)": 68
    },
    {
        "Altitude(m)": 715122.5683147843,
        "Argument of Periapsis(deg)": 0.004136412430932987,
        "Eccentricity": 0.0,
        "Inclination(deg)": 45.0,
        "Latitude(deg)": -38.48933642456901,
        "Longitude(deg)": 47.47191958382096,
        "Mean Anomaly(deg)": -61.26612132275693,
        "RAAN(deg)": 199.9960953475757,
        "Satellite Name": "Constellation 1 898",
        "Satellite Number": 898,
        "Semi-Major Axis(m)": 7083131.272910544,
        "Time(s)": 69
    },
    {
        "Altitude(m)": 715111.7070359685,
        "Argument of Periapsis(deg)": 0.004196360437178394,
        "Eccentricity": 0.0,
        "Inclination(deg)": 45.0,
        "Latitude(deg)": -38.46303044007277,
        "Longitude(deg)": 47.537389500569645,
        "Mean Anomaly(deg)": -61.20542018250706,
        "RAAN(deg)": 199.99603875841015,
        "Satellite Name": "Constellation 1 898",
        "Satellite Number": 898,
        "Semi-Major Axis(m)": 7083131.272910544,
        "Time(s)": 70
    },
    {
        "Altitude(m)": 715100.8294960097,
        "Argument of Periapsis(deg)": 0.004256308443423799,
        "Eccentricity": 0.0,
        "Inclination(deg)": 45.0,
        "Latitude(deg)": -38.436683016981945,
        "Longitude(deg)": 47.602808992667555,
        "Mean Anomaly(deg)": -61.1447190422571,
        "RAAN(deg)": 199.99598216924454,
        "Satellite Name": "Constellation 1 898",
        "Satellite Number": 898,
        "Semi-Major Axis(m)": 7083131.272910544,
        "Time(s)": 71
    },
    {
        "Altitude(m)": 715089.9357343945,
        "Argument of Periapsis(deg)": 0.004316256449669204,
        "Eccentricity": 0.0,
        "Inclination(deg)": 45.0,
        "Latitude(deg)": -38.410294223321664,
        "Longitude(deg)": 47.668178065340975,
        "Mean Anomaly(deg)": -61.08401790200724,
        "RAAN(deg)": 199.995925580079,
        "Satellite Name": "Constellation 1 898",
        "Satellite Number": 898,
        "Semi-Major Axis(m)": 7083131.272910544,
        "Time(s)": 72
    },
    {
        "Altitude(m)": 715079.025790678,
        "Argument of Periapsis(deg)": 0.00437620445591461,
        "Eccentricity": 0.0,
        "Inclination(deg)": 45.0,
        "Latitude(deg)": -38.38386412709082,
        "Longitude(deg)": 47.73349672417852,
        "Mean Anomaly(deg)": -61.02331676175738,
        "RAAN(deg)": 199.99586899091344,
        "Satellite Name": "Constellation 1 898",
        "Satellite Number": 898,
        "Semi-Major Axis(m)": 7083131.272910544,
        "Time(s)": 73
    },
    {
        "Altitude(m)": 715068.099704454,
        "Argument of Periapsis(deg)": 0.004436152462160016,
        "Eccentricity": 0.0,
        "Inclination(deg)": 45.0,
        "Latitude(deg)": -38.35739279626197,
        "Longitude(deg)": 47.7987648070318,
        "Mean Anomaly(deg)": -60.96261562150752,
        "RAAN(deg)": 199.99581240174786,
        "Satellite Name": "Constellation 1 898",
        "Satellite Number": 898,
        "Semi-Major Axis(m)": 7083131.272910544,
        "Time(s)": 74
    },
    {
        "Altitude(m)": 715057.1575153883,
        "Argument of Periapsis(deg)": 0.0044961004684054215,
        "Eccentricity": 0.0,
        "Inclination(deg)": 45.0,
        "Latitude(deg)": -38.33088029878014,
        "Longitude(deg)": 47.86398265640203,
        "Mean Anomaly(deg)": -60.901914481257556,
        "RAAN(deg)": 199.9957558125823,
        "Satellite Name": "Constellation 1 898",
        "Satellite Number": 898,
        "Semi-Major Axis(m)": 7083131.272910544,
        "Time(s)": 75
    }
]